{
  "links" : {
    "next" : "https://api.nasa.gov/neo/rest/v1/feed?start_date=2007-07-16&end_date=2007-07-16&detailed=true&api_key=t0TVs3DtDT2H8Oy2Zy8m2eVrNsAVKAexjcZXUckd",
    "prev" : "https://api.nasa.gov/neo/rest/v1/feed?start_date=2007-07-14&end_date=2007-07-14&detailed=true&api_key=t0TVs3DtDT2H8Oy2Zy8m2eVrNsAVKAexjcZXUckd",
    "self" : "https://api.nasa.gov/neo/rest/v1/feed?start_date=2007-07-15&end_date=2007-07-15&detailed=true&api_key=t0TVs3DtDT2H8Oy2Zy8m2eVrNsAVKAexjcZXUckd"
  },
  "element_count" : 4,
  "near_earth_objects" : {
    "2007-07-15" : [ {
      "links" : {
        "self" : "https://api.nasa.gov/neo/rest/v1/neo/3364159?api_key=t0TVs3DtDT2H8Oy2Zy8m2eVrNsAVKAexjcZXUckd"
      },
      "neo_reference_id" : "3364159",
      "name" : "(2006 YP)",
      "nasa_jpl_url" : "http://ssd.jpl.nasa.gov/sbdb.cgi?sstr=3364159",
      "absolute_magnitude_h" : 23.7,
      "estimated_diameter" : {
        "kilometers" : {
          "estimated_diameter_min" : 0.0483676488,
          "estimated_diameter_max" : 0.1081533507
        },
        "meters" : {
          "estimated_diameter_min" : 48.3676488219,
          "estimated_diameter_max" : 108.1533506775
        },
        "miles" : {
          "estimated_diameter_min" : 0.0300542543,
          "estimated_diameter_max" : 0.0672033557
        },
        "feet" : {
          "estimated_diameter_min" : 158.6865169607,
          "estimated_diameter_max" : 354.8338390368
        }
      },
      "is_potentially_hazardous_asteroid" : false,
      "close_approach_data" : [ {
        "close_approach_date" : "2007-07-15",
        "epoch_date_close_approach" : 1184482800000,
        "relative_velocity" : {
          "kilometers_per_second" : "5.3674122978",
          "kilometers_per_hour" : "19322.6842721745",
          "miles_per_hour" : "12006.3645690075"
        },
        "miss_distance" : {
          "astronomical" : "0.2998288606",
          "lunar" : "116.6334228516",
          "kilometers" : "44853760",
          "miles" : "27870834"
        },
        "orbiting_body" : "Earth"
      } ],
      "orbital_data" : {
        "orbit_id" : "11",
        "orbit_determination_date" : "2017-04-06 09:07:19",
        "orbit_uncertainty" : "7",
        "minimum_orbit_intersection" : ".0262827",
        "jupiter_tisserand_invariant" : "5.458",
        "epoch_osculation" : "2458000.5",
        "eccentricity" : ".2108870222440441",
        "semi_major_axis" : "1.144807502089606",
        "inclination" : "5.383943381602168",
        "ascending_node_longitude" : "69.40924767641658",
        "orbital_period" : "447.4011818643731",
        "perihelion_distance" : ".9033824569312866",
        "perihelion_argument" : "95.22258740359153",
        "aphelion_distance" : "1.386232547247925",
        "perihelion_time" : "2458180.880396818927",
        "mean_anomaly" : "214.8574624139037",
        "mean_motion" : ".8046469580161543",
        "equinox" : "J2000"
      }
    }, {
      "links" : {
        "self" : "https://api.nasa.gov/neo/rest/v1/neo/3689268?api_key=t0TVs3DtDT2H8Oy2Zy8m2eVrNsAVKAexjcZXUckd"
      },
      "neo_reference_id" : "3689268",
      "name" : "(2014 SM1)",
      "nasa_jpl_url" : "http://ssd.jpl.nasa.gov/sbdb.cgi?sstr=3689268",
      "absolute_magnitude_h" : 25.6,
      "estimated_diameter" : {
        "kilometers" : {
          "estimated_diameter_min" : 0.0201629919,
          "estimated_diameter_max" : 0.0450858206
        },
        "meters" : {
          "estimated_diameter_min" : 20.1629919443,
          "estimated_diameter_max" : 45.0858206172
        },
        "miles" : {
          "estimated_diameter_min" : 0.0125286985,
          "estimated_diameter_max" : 0.0280150214
        },
        "feet" : {
          "estimated_diameter_min" : 66.1515504905,
          "estimated_diameter_max" : 147.9193637137
        }
      },
      "is_potentially_hazardous_asteroid" : false,
      "close_approach_data" : [ {
        "close_approach_date" : "2007-07-15",
        "epoch_date_close_approach" : 1184482800000,
        "relative_velocity" : {
          "kilometers_per_second" : "5.1366036696",
          "kilometers_per_hour" : "18491.7732106286",
          "miles_per_hour" : "11490.0687485709"
        },
        "miss_distance" : {
          "astronomical" : "0.2555741285",
          "lunar" : "99.4183425903",
          "kilometers" : "38233348",
          "miles" : "23757100"
        },
        "orbiting_body" : "Earth"
      } ],
      "orbital_data" : {
        "orbit_id" : "5",
        "orbit_determination_date" : "2017-04-06 08:38:40",
        "orbit_uncertainty" : "5",
        "minimum_orbit_intersection" : ".0279594",
        "jupiter_tisserand_invariant" : "6.474",
        "epoch_osculation" : "2458000.5",
        "eccentricity" : ".2578876936229458",
        "semi_major_axis" : ".9179069281201094",
        "inclination" : "7.333257404304332",
        "ascending_node_longitude" : "354.3754188000846",
        "orbital_period" : "321.215429688176",
        "perihelion_distance" : ".6811900274666913",
        "perihelion_argument" : "220.4177088804567",
        "aphelion_distance" : "1.154623828773528",
        "perihelion_time" : "2458099.857335303095",
        "mean_anomaly" : "248.6459447361011",
        "mean_motion" : "1.120743173357128",
        "equinox" : "J2000"
      }
    }, {
      "links" : {
        "self" : "https://api.nasa.gov/neo/rest/v1/neo/3762883?api_key=t0TVs3DtDT2H8Oy2Zy8m2eVrNsAVKAexjcZXUckd"
      },
      "neo_reference_id" : "3762883",
      "name" : "(2016 UH101)",
      "nasa_jpl_url" : "http://ssd.jpl.nasa.gov/sbdb.cgi?sstr=3762883",
      "absolute_magnitude_h" : 22.7,
      "estimated_diameter" : {
        "kilometers" : {
          "estimated_diameter_min" : 0.0766575574,
          "estimated_diameter_max" : 0.1714115092
        },
        "meters" : {
          "estimated_diameter_min" : 76.6575573531,
          "estimated_diameter_max" : 171.4115092306
        },
        "miles" : {
          "estimated_diameter_min" : 0.0476327831,
          "estimated_diameter_max" : 0.1065101409
        },
        "feet" : {
          "estimated_diameter_min" : 251.5011804664,
          "estimated_diameter_max" : 562.3737359442
        }
      },
      "is_potentially_hazardous_asteroid" : false,
      "close_approach_data" : [ {
        "close_approach_date" : "2007-07-15",
        "epoch_date_close_approach" : 1184482800000,
        "relative_velocity" : {
          "kilometers_per_second" : "19.1428244556",
          "kilometers_per_hour" : "68914.1680402331",
          "miles_per_hour" : "42820.5840247771"
        },
        "miss_distance" : {
          "astronomical" : "0.3672206568",
          "lunar" : "142.8488464355",
          "kilometers" : "54935432",
          "miles" : "34135296"
        },
        "orbiting_body" : "Earth"
      } ],
      "orbital_data" : {
        "orbit_id" : "14",
        "orbit_determination_date" : "2017-08-10 06:20:13",
        "orbit_uncertainty" : "6",
        "minimum_orbit_intersection" : ".0149365",
        "jupiter_tisserand_invariant" : "3.556",
        "epoch_osculation" : "2458000.5",
        "eccentricity" : ".5300522878590822",
        "semi_major_axis" : "2.094836798348418",
        "inclination" : "4.710038548783405",
        "ascending_node_longitude" : "176.2039262468779",
        "orbital_period" : "1107.448956286858",
        "perihelion_distance" : ".984463760692444",
        "perihelion_argument" : "175.6281906858698",
        "aphelion_distance" : "3.205209836004391",
        "perihelion_time" : "2457652.574221352518",
        "mean_anomaly" : "113.1007254122598",
        "mean_motion" : ".3250714156678033",
        "equinox" : "J2000"
      }
    }, {
      "links" : {
        "self" : "https://api.nasa.gov/neo/rest/v1/neo/3769813?api_key=t0TVs3DtDT2H8Oy2Zy8m2eVrNsAVKAexjcZXUckd"
      },
      "neo_reference_id" : "3769813",
      "name" : "(2017 DT34)",
      "nasa_jpl_url" : "http://ssd.jpl.nasa.gov/sbdb.cgi?sstr=3769813",
      "absolute_magnitude_h" : 27.8,
      "estimated_diameter" : {
        "kilometers" : {
          "estimated_diameter_min" : 0.0073207399,
          "estimated_diameter_max" : 0.016369672
        },
        "meters" : {
          "estimated_diameter_min" : 7.3207398935,
          "estimated_diameter_max" : 16.3696720474
        },
        "miles" : {
          "estimated_diameter_min" : 0.0045488955,
          "estimated_diameter_max" : 0.0101716395
        },
        "feet" : {
          "estimated_diameter_min" : 24.0181762721,
          "estimated_diameter_max" : 53.70627484
        }
      },
      "is_potentially_hazardous_asteroid" : false,
      "close_approach_data" : [ {
        "close_approach_date" : "2007-07-15",
        "epoch_date_close_approach" : 1184482800000,
        "relative_velocity" : {
          "kilometers_per_second" : "23.9061227142",
          "kilometers_per_hour" : "86062.0417710358",
          "miles_per_hour" : "53475.6058993416"
        },
        "miss_distance" : {
          "astronomical" : "0.4678631708",
          "lunar" : "181.9987792969",
          "kilometers" : "69991336",
          "miles" : "43490600"
        },
        "orbiting_body" : "Earth"
      } ],
      "orbital_data" : {
        "orbit_id" : "3",
        "orbit_determination_date" : "2017-04-06 08:20:04",
        "orbit_uncertainty" : "7",
        "minimum_orbit_intersection" : ".00343495",
        "jupiter_tisserand_invariant" : "4.319",
        "epoch_osculation" : "2458000.5",
        "eccentricity" : ".4382612758794096",
        "semi_major_axis" : "1.559269324142954",
        "inclination" : "3.505492304119615",
        "ascending_node_longitude" : "153.2548774100331",
        "orbital_period" : "711.1809736674072",
        "perihelion_distance" : ".8759019607044385",
        "perihelion_argument" : "54.52981750932435",
        "aphelion_distance" : "2.24263668758147",
        "perihelion_time" : "2457847.947510126953",
        "mean_anomaly" : "77.22211137214758",
        "mean_motion" : ".5062002687495385",
        "equinox" : "J2000"
      }
    } ]
  }
}